[{"OBJECT_NAME":"IRIDIUM 148","OBJECT_ID":"2018-030G","EPOCH":"2026-03-09T17:19:11.405856","MEAN_MOTION":14.34218043,"ECCENTRICITY":0.00021734,"INCLINATION":86.4007,"RA_OF_ASC_NODE":332.0603,"ARG_OF_PERICENTER":85.9806,"MEAN_ANOMALY":274.1638,"EPHEMERIS_TYPE":0,"CLASSIFICATION_TYPE":"U","NORAD_CAT_ID":43255,"ELEMENT_SET_NO":999,"REV_AT_EPOCH":41591,"BSTAR":1.8722771e-5,"MEAN_MOTION_DOT":7.2e-7,"MEAN_MOTION_DDOT":0},{"OBJECT_NAME":"FENGYUN 1C DEB","OBJECT_ID":"1999-025BAF","EPOCH":"2026-03-09T13:44:12.836256","MEAN_MOTION":14.32019244,"ECCENTRICITY":0.0033731,"INCLINATION":98.5453,"RA_OF_ASC_NODE":289.0365,"ARG_OF_PERICENTER":58.2898,"MEAN_ANOMALY":302.1566,"EPHEMERIS_TYPE":0,"CLASSIFICATION_TYPE":"U","NORAD_CAT_ID":30941,"ELEMENT_SET_NO":999,"REV_AT_EPOCH":97868,"BSTAR":0.0018306,"MEAN_MOTION_DOT":4.904e-5,"MEAN_MOTION_DDOT":0}]
